NORAD_CAT_ID,OBJECT_NAME,OBJECT_TYPE,EPOCH,MEAN_MOTION,ECCENTRICITY,INCLINATION,RA_OF_ASC_NODE,ARG_OF_PERICENTER,MEAN_ANOMALY,BSTAR,MEAN_MOTION_DOT,MEAN_MOTION_DDOT,TLE_LINE0,TLE_LINE1,TLE_LINE2,SEMIMAJOR_AXIS,PERIOD,APOGEE,PERIGEE,DECAYED
52556.0,STARLINK-3763,PAYLOAD,2023-03-24 20:49:57,15.15606641,0.0001594,53.2153,303.4027,196.0179,164.0766,0.0018875,0.00036151,0.0,0 STARLINK-3763,1 52556U 22051Z   23083.86803107  .00036151  00000-0  18875-2 0  9999,2 52556  53.2153 303.4027 0001594 196.0179 164.0766 15.15606641 48248,6897.274,95.011,520.239,518.04,0.0
52556.0,STARLINK-3763,PAYLOAD,2023-03-24 23:59:52,15.15621252,0.0001618,53.2156,302.8028,193.8967,166.1984,0.0019604,0.00037582,0.0,0 STARLINK-3763,1 52556U 22051Z   23083.99991745  .00037582  00000-0  19604-2 0  9999,2 52556  53.2156 302.8028 0001618 193.8967 166.1984 15.15621252 48332,6897.23,95.011,520.211,517.979,0.0
52556.0,STARLINK-3763,PAYLOAD,2023-03-25 20:34:18,15.15683521,0.0001352,53.2154,298.9154,202.2615,157.8321,0.0016953,0.00032493,0.0,0 STARLINK-3763,1 52556U 22051Z   23084.85716071  .00032493  00000-0  16953-2 0  9992,2 52556  53.2154 298.9154 0001352 202.2615 157.8321 15.15683521 48390,6897.041,95.007,519.839,517.974,0.0
52556.0,STARLINK-3763,PAYLOAD,2023-03-26 20:18:36,15.15726226,0.0001162,53.2159,294.4284,213.2938,146.7984,0.0013468,0.00025757,0.0,0 STARLINK-3763,1 52556U 22051Z   23085.84625792  .00025757  00000-0  13468-2 0  9994,2 52556  53.2159 294.4284 0001162 213.2938 146.7984 15.15726226 48616,6896.912,95.004,519.578,517.975,0.0
52556.0,STARLINK-3763,PAYLOAD,2023-03-26 23:28:30,15.157325,0.0001142,53.2159,293.8303,215.3727,144.7193,0.0013976,0.00026749,0.0,0 STARLINK-3763,1 52556U 22051Z   23085.97813542  .00026749  00000-0  13976-2 0  9996,2 52556  53.2159 293.8303 0001142 215.3727 144.7193 15.15732500 48564,6896.893,95.004,519.545,517.97,0.0
52556.0,STARLINK-3763,PAYLOAD,2023-03-27 20:02:51,15.15773614,0.0001026,53.2163,289.9417,230.6612,129.4292,0.0013037,0.00024954,0.0,0 STARLINK-3763,1 52556U 22051Z   23086.83532396  .00024954  00000-0  13037-2 0  9991,2 52556  53.2163 289.9417 0001026 230.6612 129.4292 15.15773614 48690,6896.768,95.001,519.341,517.925,0.0
52556.0,STARLINK-3763,PAYLOAD,2023-03-28 13:27:17,15.15808384,0.0001027,53.2166,286.6501,235.4389,124.6509,0.0012559,0.00024049,0.0,0 STARLINK-3763,1 52556U 22051Z   23087.56061936  .00024049  00000-0  12559-2 0  9992,2 52556  53.2166 286.6501 0001027 235.4389 124.6509 15.15808384 48800,6896.662,94.999,519.236,517.819,0.0
52556.0,STARLINK-3763,PAYLOAD,2023-03-28 16:37:11,15.15815135,0.0001015,53.2167,286.052,237.9266,122.1631,0.0012932,0.0002478,0.0,0 STARLINK-3763,1 52556U 22051Z   23087.69248939  .00024780  00000-0  12932-2 0  9993,2 52556  53.2167 286.0520 0001015 237.9266 122.1631 15.15815135 48894,6896.642,94.998,519.207,517.807,0.0
52556.0,STARLINK-3763,PAYLOAD,2023-03-28 19:47:04,15.15825271,0.0001,53.2167,285.4537,239.3795,120.7101,0.0014715,0.00028261,0.0,0 STARLINK-3763,1 52556U 22051Z   23087.82435838  .00028261  00000-0  14715-2 0  9993,2 52556  53.2167 285.4537 0001000 239.3795 120.7101 15.15825271 48845,6896.611,94.998,519.166,517.787,0.0
52556.0,STARLINK-3763,PAYLOAD,2023-03-28 22:56:58,15.15832474,9.94e-05,53.2167,284.8554,241.6425,118.447,0.0014773,0.00028379,0.0,0 STARLINK-3763,1 52556U 22051Z   23087.95622705  .00028379  00000-0  14773-2 0  9992,2 52556  53.2167 284.8554 0000994 241.6425 118.4470 15.15832474 48862,6896.589,94.997,519.14,517.769,0.0
52556.0,STARLINK-3763,PAYLOAD,2023-03-29 19:31:14,15.15878106,9.36e-05,53.2174,280.9661,246.4269,113.6628,0.0014981,0.00028823,0.0,0 STARLINK-3763,1 52556U 22051Z   23088.81335884  .00028823  00000-0  14981-2 0  9992,2 52556  53.2174 280.9661 0000936 246.4269 113.6628 15.15878106 48999,6896.451,94.994,518.962,517.67,0.0
52556.0,STARLINK-3763,PAYLOAD,2023-03-29 22:41:07,15.15890753,9.18e-05,53.2174,280.3672,247.8622,112.2276,0.0017009,0.00032796,0.0,0 STARLINK-3763,1 52556U 22051Z   23088.94522200  .00032796  00000-0  17009-2 0  9994,2 52556  53.2174 280.3672 0000918 247.8622 112.2276 15.15890753 49080,6896.413,94.994,518.911,517.645,0.0
52556.0,STARLINK-3763,PAYLOAD,2023-03-30 20:50:16,15.1595806,9.51e-05,53.2171,276.1778,255.9644,104.1245,0.0018638,0.00036053,0.0,0 STARLINK-3763,1 52556U 22051Z   23089.86824308  .00036053  00000-0  18638-2 0  9999,2 52556  53.2171 276.1778 0000951 255.9644 104.1245 15.15958060 49158,6896.209,94.989,518.729,517.418,0.0
52556.0,STARLINK-3763,PAYLOAD,2023-03-31 15:49:30,15.160015,9.82e-05,53.2171,272.5871,264.4493,95.6391,0.0017175,0.00033227,0.0,0 STARLINK-3763,1 52556U 22051Z   23090.65937818  .00033227  00000-0  17175-2 0  9994,2 52556  53.2171 272.5871 0000982 264.4493  95.6391 15.16001500 49349,6896.077,94.987,518.619,517.265,0.0
52556.0,STARLINK-3763,PAYLOAD,2023-04-01 04:28:58,15.16028094,0.0001006,53.2167,270.1934,268.2955,91.7925,0.0014698,0.00028392,0.0,0 STARLINK-3763,1 52556U 22051Z   23091.18678839  .00028392  00000-0  14698-2 0  9992,2 52556  53.2167 270.1934 0001006 268.2955  91.7925 15.16028094 49359,6895.996,94.985,518.555,517.167,0.0
52556.0,STARLINK-3763,PAYLOAD,2023-04-01 13:58:34,15.16045236,9.62e-05,53.2166,268.398,271.7098,88.3787,0.0012452,0.00024004,0.0,0 STARLINK-3763,1 52556U 22051Z   23091.58234029  .00024004  00000-0  12452-2 0  9997,2 52556  53.2166 268.3980 0000962 271.7098  88.3787 15.16045236 49484,6895.944,94.984,518.473,517.146,0.0
52556.0,STARLINK-3763,PAYLOAD,2023-04-01 18:43:21,15.16055851,9.78e-05,53.2165,267.5005,275.2497,84.8387,0.0013123,0.00025326,0.0,0 STARLINK-3763,1 52556U 22051Z   23091.78011420  .00025326  00000-0  13123-2 0  9991,2 52556  53.2165 267.5005 0000978 275.2497  84.8387 15.16055851 49448,6895.912,94.983,518.451,517.103,0.0
52556.0,STARLINK-3763,PAYLOAD,2023-04-02 07:22:48,15.16085965,0.000101,53.2163,265.1061,277.3437,82.7444,0.0014395,0.00027845,0.0,0 STARLINK-3763,1 52556U 22051Z   23092.30750399  .00027845  00000-0  14395-2 0  9995,2 52556  53.2163 265.1061 0001010 277.3437  82.7444 15.16085965 49526,6895.821,94.981,518.382,516.989,0.0
52556.0,STARLINK-3763,PAYLOAD,2023-04-02 15:17:26,15.16101704,0.0001035,53.2163,263.6099,281.3726,78.7153,0.0013313,0.00025733,0.0,0 STARLINK-3763,1 52556U 22051Z   23092.63711798  .00025733  00000-0  13313-2 0  9994,2 52556  53.2163 263.6099 0001035 281.3726  78.7153 15.16101704 49648,6895.773,94.98,518.352,516.924,0.0
52556.0,STARLINK-3763,PAYLOAD,2023-04-02 18:27:18,15.16109591,0.0001049,53.2162,263.0115,283.1599,76.9279,0.001379,0.00026675,0.0,0 STARLINK-3763,1 52556U 22051Z   23092.76896228  .00026675  00000-0  13790-2 0  9995,2 52556  53.2162 263.0115 0001049 283.1599  76.9279 15.16109591 49598,6895.749,94.98,518.337,516.891,0.0
52556.0,STARLINK-3763,PAYLOAD,2023-04-03 13:26:25,15.16148927,0.0001111,53.2161,259.42,286.3104,73.7769,0.0012095,0.00023374,0.0,0 STARLINK-3763,1 52556U 22051Z   23093.56001639  .00023374  00000-0  12095-2 0  9998,2 52556  53.2161 259.4200 0001111 286.3104  73.7769 15.16148927 49717,6895.63,94.977,518.261,516.729,0.0
52556.0,STARLINK-3763,PAYLOAD,2023-04-03 18:11:11,15.16160021,0.0001133,53.216,258.5225,288.1195,71.9677,0.0012817,0.00024801,0.0,0 STARLINK-3763,1 52556U 22051Z   23093.75777645  .00024801  00000-0  12817-2 0  9994,2 52556  53.2160 258.5225 0001133 288.1195  71.9677 15.16160021 49815,6895.596,94.977,518.242,516.68,0.0
52556.0,STARLINK-3763,PAYLOAD,2023-04-04 11:35:21,15.16203025,0.000117,53.2159,255.2295,293.2,66.8872,0.0012957,0.00025107,0.0,0 STARLINK-3763,1 52556U 22051Z   23094.48288334  .00025107  00000-0  12957-2 0  9992,2 52556  53.2159 255.2295 0001170 293.2000  66.8872 15.16203025 49853,6895.466,94.974,518.137,516.524,0.0
52556.0,STARLINK-3763,PAYLOAD,2023-04-05 14:28:59,15.16267179,0.0001305,53.2159,250.1414,302.8755,57.2115,0.0013785,0.00026787,0.0,0 STARLINK-3763,1 52556U 22051Z   23095.60346483  .00026787  00000-0  13785-2 0  9992,2 52556  53.2159 250.1414 0001305 302.8755  57.2115 15.16267179 50029,6895.271,94.97,518.036,516.236,0.0
52556.0,STARLINK-3763,PAYLOAD,2023-04-05 16:03:54,15.16271436,0.0001308,53.2158,249.8421,304.2822,55.805,0.001402,0.00027254,0.0,0 STARLINK-3763,1 52556U 22051Z   23095.66937987  .00027254  00000-0  14020-2 0  9996,2 52556  53.2158 249.8421 0001308 304.2822  55.8050 15.16271436 50107,6895.258,94.97,518.025,516.221,0.0
52556.0,STARLINK-3763,PAYLOAD,2023-04-05 17:38:49,15.16275496,0.0001318,53.2157,249.5428,305.5016,54.5857,0.0014144,0.00027502,0.0,0 STARLINK-3763,1 52556U 22051Z   23095.73529479  .00027502  00000-0  14144-2 0  9990,2 52556  53.2157 249.5428 0001318 305.5016  54.5857 15.16275496 50044,6895.246,94.97,518.02,516.202,0.0
52556.0,STARLINK-3763,PAYLOAD,2023-04-06 11:02:54,15.16317997,0.0001367,53.2157,246.2498,309.0311,51.0563,0.0013613,0.00026486,0.0,0 STARLINK-3763,1 52556U 22051Z   23096.46034724  .00026486  00000-0  13613-2 0  9995,2 52556  53.2157 246.2498 0001367 309.0311  51.0563 15.16317997 50157,6895.117,94.967,517.925,516.04,0.0
52556.0,STARLINK-3763,PAYLOAD,2023-04-07 02:52:01,15.16361339,0.0001366,53.216,243.2569,313.4551,46.6331,0.0015822,0.00030892,0.0,0 STARLINK-3763,1 52556U 22051Z   23097.11946743  .00030892  00000-0  15822-2 0  9991,2 52556  53.2160 243.2569 0001366 313.4551  46.6331 15.16361339 50322,6894.986,94.964,517.793,515.909,0.0
52556.0,STARLINK-3763,PAYLOAD,2023-04-07 10:46:35,15.16382334,0.0001372,53.216,241.7599,315.2543,44.8341,0.0015802,0.00030871,0.0,0 STARLINK-3763,1 52556U 22051Z   23097.44902084  .00030871  00000-0  15802-2 0  9992,2 52556  53.2160 241.7599 0001372 315.2543  44.8341 15.16382334 50303,6894.922,94.963,517.733,515.841,0.0
52556.0,STARLINK-3763,PAYLOAD,2023-04-08 08:55:18,15.16442088,0.0001536,53.2174,237.5703,325.1756,34.9139,0.0015373,0.00030073,0.0,0 STARLINK-3763,1 52556U 22051Z   23098.37174535  .00030073  00000-0  15373-2 0  9994,2 52556  53.2174 237.5703 0001536 325.1756  34.9139 15.16442088 50517,6894.741,94.959,517.665,515.547,0.0
